IRIDIUM 26              
1 24903U 97043A   25068.75588796  .00000730  00000+0  23987-3 0  9998
2 24903  86.4014 152.3796 0002384  92.8852 267.2618 14.37016274442464
IRIDIUM 22              
1 24907U 97043E   25068.81310838  .00000645  00000+0  21593-3 0  9995
2 24907  86.4023 155.8041 0002155  95.3961 264.7481 14.35844619442510
DUMMY MASS 1            
1 24925U 97048A   25068.81755711  .00000957  00000+0  10408-3 0  9992
2 24925  86.3414 181.2352 0008416 127.2460 232.9534 14.86845210490362
DUMMY MASS 2            
1 24926U 97048B   25068.83049353  .00000953  00000+0  10436-3 0  9990
2 24926  86.3415 182.8163 0008881 137.5607 222.6306 14.86598032490140
IRIDIUM 29              
1 24944U 97051A   25068.87069140  .00000794  00000+0  26499-3 0  9993
2 24944  86.4029 185.5104 0001934  99.3899 260.7516 14.36327755439019
IRIDIUM 33              
1 24946U 97051C   25068.81445554  .00000610  00000+0  20818-3 0  9992
2 24946  86.3945 184.7867 0009256  53.2084 306.9961 14.34797215438492
IRIDIUM 28              
1 24948U 97051E   25068.83874324  .00000801  00000+0  26251-3 0  9996
2 24948  86.4037 183.0993 0002440  88.1099 272.0378 14.37260098439572
IRIDIUM 36              
1 24967U 97056C   25068.88658271  .00000979  00000+0  32097-3 0  9999
2 24967  86.3990 214.6613 0001990  87.3360 272.8065 14.37460535437950
